[{"OBJECT_NAME":"ONEWEB-0056","OBJECT_ID":"2020-008AE","EPOCH":"2026-01-06T04:27:26.379936","MEAN_MOTION":13.10372224,"ECCENTRICITY":0.000181,"INCLINATION":87.8785,"RA_OF_ASC_NODE":68.5558,"ARG_OF_PERICENTER":109.2072,"MEAN_ANOMALY":250.9252,"EPHEMERIS_TYPE":0,"CLASSIFICATION_TYPE":"U","NORAD_CAT_ID":45159,"ELEMENT_SET_NO":999,"REV_AT_EPOCH":28696,"BSTAR":-0.0010224147,"MEAN_MOTION_DOT":-3.44e-6,"MEAN_MOTION_DDOT":0},{"OBJECT_NAME":"ONEWEB-0057","OBJECT_ID":"2020-008AF","EPOCH":"2026-01-06T04:38:23.203968","MEAN_MOTION":13.10372481,"ECCENTRICITY":0.00020118,"INCLINATION":87.8782,"RA_OF_ASC_NODE":68.5672,"ARG_OF_PERICENTER":102.3966,"MEAN_ANOMALY":257.7386,"EPHEMERIS_TYPE":0,"CLASSIFICATION_TYPE":"U","NORAD_CAT_ID":45160,"ELEMENT_SET_NO":999,"REV_AT_EPOCH":28713,"BSTAR":-0.0016107252,"MEAN_MOTION_DOT":-5.5e-6,"MEAN_MOTION_DDOT":0},{"OBJECT_NAME":"ONEWEB-0058","OBJECT_ID":"2020-008AG","EPOCH":"2026-01-06T04:19:17.622048","MEAN_MOTION":13.10370861,"ECCENTRICITY":0.0001514,"INCLINATION":87.8776,"RA_OF_ASC_NODE":68.5793,"ARG_OF_PERICENTER":97.8847,"MEAN_ANOMALY":262.2452,"EPHEMERIS_TYPE":0,"CLASSIFICATION_TYPE":"U","NORAD_CAT_ID":45161,"ELEMENT_SET_NO":999,"REV_AT_EPOCH":28720,"BSTAR":-0.00053989138,"MEAN_MOTION_DOT":-1.76e-6,"MEAN_MOTION_DDOT":0},{"OBJECT_NAME":"ONEWEB-0059","OBJECT_ID":"2020-008AH","EPOCH":"2026-01-06T04:14:17.948832","MEAN_MOTION":13.1037074,"ECCENTRICITY":0.00018335,"INCLINATION":87.877,"RA_OF_ASC_NODE":68.579,"ARG_OF_PERICENTER":102.6528,"MEAN_ANOMALY":257.4804,"EPHEMERIS_TYPE":0,"CLASSIFICATION_TYPE":"U","NORAD_CAT_ID":45162,"ELEMENT_SET_NO":999,"REV_AT_EPOCH":28710,"BSTAR":-9.407814e-5,"MEAN_MOTION_DOT":-2.0e-7,"MEAN_MOTION_DDOT":0},{"OBJECT_NAME":"ONEWEB-0062","OBJECT_ID":"2020-008AJ","EPOCH":"2026-01-06T04:51:20.866176","MEAN_MOTION":13.10374838,"ECCENTRICITY":0.00013101,"INCLINATION":87.8796,"RA_OF_ASC_NODE":68.5524,"ARG_OF_PERICENTER":97.1186,"MEAN_ANOMALY":263.009,"EPHEMERIS_TYPE":0,"CLASSIFICATION_TYPE":"U","NORAD_CAT_ID":45163,"ELEMENT_SET_NO":999,"REV_AT_EPOCH":28697,"BSTAR":-0.0011385478,"MEAN_MOTION_DOT":-3.85e-6,"MEAN_MOTION_DDOT":0},{"OBJECT_NAME":"ONEWEB-0065","OBJECT_ID":"2020-008AK","EPOCH":"2026-01-06T03:45:26.053056","MEAN_MOTION":13.10372775,"ECCENTRICITY":0.00020818,"INCLINATION":87.8782,"RA_OF_ASC_NODE":68.5755,"ARG_OF_PERICENTER":108.7022,"MEAN_ANOMALY":251.4331,"EPHEMERIS_TYPE":0,"CLASSIFICATION_TYPE":"U","NORAD_CAT_ID":45164,"ELEMENT_SET_NO":999,"REV_AT_EPOCH":28666,"BSTAR":0.0020757762,"MEAN_MOTION_DOT":7.37e-6,"MEAN_MOTION_DDOT":0},{"OBJECT_NAME":"ONEWEB-0066","OBJECT_ID":"2020-020A","EPOCH":"2026-01-06T04:02:50.957376","MEAN_MOTION":13.11420798,"ECCENTRICITY":0.00019374,"INCLINATION":87.884,"RA_OF_ASC_NODE":53.3217,"ARG_OF_PERICENTER":92.6612,"MEAN_ANOMALY":267.4738,"EPHEMERIS_TYPE":0,"CLASSIFICATION_TYPE":"U","NORAD_CAT_ID":45424,"ELEMENT_SET_NO":999,"REV_AT_EPOCH":28144,"BSTAR":-9.3378861e-5,"MEAN_MOTION_DOT":-2.0e-7,"MEAN_MOTION_DDOT":0},{"OBJECT_NAME":"ONEWEB-0067","OBJECT_ID":"2020-020B","EPOCH":"2026-01-06T03:06:54.867744","MEAN_MOTION":13.11414708,"ECCENTRICITY":0.00019711,"INCLINATION":87.8837,"RA_OF_ASC_NODE":53.234,"ARG_OF_PERICENTER":97.0391,"MEAN_ANOMALY":263.0961,"EPHEMERIS_TYPE":0,"CLASSIFICATION_TYPE":"U","NORAD_CAT_ID":45425,"ELEMENT_SET_NO":999,"REV_AT_EPOCH":28149,"BSTAR":0.00038128521,"MEAN_MOTION_DOT":1.48e-6,"MEAN_MOTION_DDOT":0},{"OBJECT_NAME":"ONEWEB-0080","OBJECT_ID":"2020-020C","EPOCH":"2026-01-06T03:20:08.469024","MEAN_MOTION":13.11415015,"ECCENTRICITY":0.00015651,"INCLINATION":87.8827,"RA_OF_ASC_NODE":53.3272,"ARG_OF_PERICENTER":89.1862,"MEAN_ANOMALY":270.9446,"EPHEMERIS_TYPE":0,"CLASSIFICATION_TYPE":"U","NORAD_CAT_ID":45426,"ELEMENT_SET_NO":999,"REV_AT_EPOCH":28146,"BSTAR":-0.00054686937,"MEAN_MOTION_DOT":-1.81e-6,"MEAN_MOTION_DDOT":0},{"OBJECT_NAME":"ONEWEB-0090","OBJECT_ID":"2020-020D","EPOCH":"2026-01-06T05:38:14.914176","MEAN_MOTION":13.11360176,"ECCENTRICITY":0.00017596,"INCLINATION":87.8834,"RA_OF_ASC_NODE":53.3103,"ARG_OF_PERICENTER":98.2982,"MEAN_ANOMALY":261.8346,"EPHEMERIS_TYPE":0,"CLASSIFICATION_TYPE":"U","NORAD_CAT_ID":45427,"ELEMENT_SET_NO":999,"REV_AT_EPOCH":28144,"BSTAR":-0.01389793,"MEAN_MOTION_DOT":-4.906e-5,"MEAN_MOTION_DDOT":0},{"OBJECT_NAME":"ONEWEB-0061","OBJECT_ID":"2020-020E","EPOCH":"2026-01-06T04:34:24.652704","MEAN_MOTION":13.11416613,"ECCENTRICITY":0.00017386,"INCLINATION":87.8836,"RA_OF_ASC_NODE":53.3015,"ARG_OF_PERICENTER":96.6574,"MEAN_ANOMALY":263.4752,"EPHEMERIS_TYPE":0,"CLASSIFICATION_TYPE":"U","NORAD_CAT_ID":45428,"ELEMENT_SET_NO":999,"REV_AT_EPOCH":28139,"BSTAR":0.0014922354,"MEAN_MOTION_DOT":5.42e-6,"MEAN_MOTION_DDOT":0},{"OBJECT_NAME":"ONEWEB-0081","OBJECT_ID":"2020-020F","EPOCH":"2026-01-06T04:07:44.076288","MEAN_MOTION":13.11420357,"ECCENTRICITY":0.00019388,"INCLINATION":87.8839,"RA_OF_ASC_NODE":53.3204,"ARG_OF_PERICENTER":94.5828,"MEAN_ANOMALY":265.5521,"EPHEMERIS_TYPE":0,"CLASSIFICATION_TYPE":"U","NORAD_CAT_ID":45429,"ELEMENT_SET_NO":999,"REV_AT_EPOCH":28150,"BSTAR":0.00014430772,"MEAN_MOTION_DOT":6.4e-7,"MEAN_MOTION_DDOT":0},{"OBJECT_NAME":"ONEWEB-0069","OBJECT_ID":"2020-020G","EPOCH":"2026-01-06T03:51:51.569856","MEAN_MOTION":13.11419056,"ECCENTRICITY":0.00018488,"INCLINATION":87.8837,"RA_OF_ASC_NODE":53.319,"ARG_OF_PERICENTER":97.0255,"MEAN_ANOMALY":263.1083,"EPHEMERIS_TYPE":0,"CLASSIFICATION_TYPE":"U","NORAD_CAT_ID":45430,"ELEMENT_SET_NO":999,"REV_AT_EPOCH":28143,"BSTAR":-0.00079051661,"MEAN_MOTION_DOT":-2.67e-6,"MEAN_MOTION_DDOT":0},{"OBJECT_NAME":"ONEWEB-0031","OBJECT_ID":"2020-020H","EPOCH":"2026-01-06T03:11:35.407680","MEAN_MOTION":13.11415457,"ECCENTRICITY":0.00015483,"INCLINATION":87.8825,"RA_OF_ASC_NODE":53.3465,"ARG_OF_PERICENTER":97.1425,"MEAN_ANOMALY":262.9879,"EPHEMERIS_TYPE":0,"CLASSIFICATION_TYPE":"U","NORAD_CAT_ID":45431,"ELEMENT_SET_NO":999,"REV_AT_EPOCH":28141,"BSTAR":0.00012901609,"MEAN_MOTION_DOT":5.8e-7,"MEAN_MOTION_DDOT":0},{"OBJECT_NAME":"ONEWEB-0027","OBJECT_ID":"2020-020J","EPOCH":"2026-01-06T08:00:59.970816","MEAN_MOTION":13.17649607,"ECCENTRICITY":0.00014999,"INCLINATION":87.9095,"RA_OF_ASC_NODE":38.0145,"ARG_OF_PERICENTER":105.4075,"MEAN_ANOMALY":254.7222,"EPHEMERIS_TYPE":0,"CLASSIFICATION_TYPE":"U","NORAD_CAT_ID":45432,"ELEMENT_SET_NO":999,"REV_AT_EPOCH":28504,"BSTAR":0.00015290536,"MEAN_MOTION_DOT":7.2e-7,"MEAN_MOTION_DDOT":0},{"OBJECT_NAME":"ONEWEB-0064","OBJECT_ID":"2020-020K","EPOCH":"2026-01-06T03:09:09.112608","MEAN_MOTION":13.11415221,"ECCENTRICITY":0.00016144,"INCLINATION":87.8824,"RA_OF_ASC_NODE":53.3368,"ARG_OF_PERICENTER":100.2076,"MEAN_ANOMALY":259.9234,"EPHEMERIS_TYPE":0,"CLASSIFICATION_TYPE":"U","NORAD_CAT_ID":45433,"ELEMENT_SET_NO":999,"REV_AT_EPOCH":28144,"BSTAR":0.00022095026,"MEAN_MOTION_DOT":9.1e-7,"MEAN_MOTION_DDOT":0}]
