ONEWEB-0056             
1 45159U 20008AE  26006.18572199 -.00000344  00000+0 -10224-2 0  9993
2 45159  87.8785  68.5558 0001810 109.2072 250.9252 13.10372224286968
ONEWEB-0057             
1 45160U 20008AF  26006.19332412 -.00000550  00000+0 -16107-2 0  9993
2 45160  87.8782  68.5672 0002011 102.3966 257.7386 13.10372481287132
ONEWEB-0058             
1 45161U 20008AG  26006.18006507 -.00000176  00000+0 -53989-3 0  9990
2 45161  87.8776  68.5793 0001514  97.8847 262.2452 13.10370861287206
ONEWEB-0059             
1 45162U 20008AH  26006.17659663 -.00000020  00000+0 -94078-4 0  9990
2 45162  87.8770  68.5790 0001833 102.6528 257.4804 13.10370740287105
ONEWEB-0062             
1 45163U 20008AJ  26006.20232484 -.00000385  00000+0 -11385-2 0  9995
2 45163  87.8796  68.5524 0001310  97.1186 263.0090 13.10374838286973
ONEWEB-0065             
1 45164U 20008AK  26006.15655154  .00000737  00000+0  20758-2 0  9996
2 45164  87.8782  68.5755 0002081 108.7022 251.4331 13.10372775286662
ONEWEB-0066             
1 45424U 20020A   26006.16864534 -.00000020  00000+0 -93379-4 0  9992
2 45424  87.8840  53.3217 0001937  92.6612 267.4738 13.11420798281445
ONEWEB-0067             
1 45425U 20020B   26006.12980171  .00000148  00000+0  38129-3 0  9995
2 45425  87.8837  53.2340 0001971  97.0391 263.0961 13.11414708281498
ONEWEB-0080             
1 45426U 20020C   26006.13898691 -.00000181  00000+0 -54687-3 0  9998
2 45426  87.8827  53.3272 0001565  89.1862 270.9446 13.11415015281461
ONEWEB-0090             
1 45427U 20020D   26006.23489484 -.00004906  00000+0 -13898-1 0  9992
2 45427  87.8834  53.3103 0001759  98.2982 261.8346 13.11360176281445
ONEWEB-0061             
1 45428U 20020E   26006.19056311  .00000542  00000+0  14922-2 0  9997
2 45428  87.8836  53.3015 0001738  96.6574 263.4752 13.11416613281397
ONEWEB-0081             
1 45429U 20020F   26006.17203792  .00000064  00000+0  14431-3 0  9998
2 45429  87.8839  53.3204 0001938  94.5828 265.5521 13.11420357281502
ONEWEB-0069             
1 45430U 20020G   26006.16101354 -.00000267  00000+0 -79052-3 0  9997
2 45430  87.8837  53.3190 0001848  97.0255 263.1083 13.11419056281431
ONEWEB-0031             
1 45431U 20020H   26006.13304870  .00000058  00000+0  12902-3 0  9990
2 45431  87.8825  53.3465 0001548  97.1425 262.9879 13.11415457281410
ONEWEB-0027             
1 45432U 20020J   26006.33402744  .00000072  00000+0  15291-3 0  9992
2 45432  87.9095  38.0145 0001499 105.4075 254.7222 13.17649607285041
ONEWEB-0064             
1 45433U 20020K   26006.13135547  .00000091  00000+0  22095-3 0  9996
2 45433  87.8824  53.3368 0001614 100.2076 259.9234 13.11415221281448
